ONEWEB-0607             
1 54671U 22166AF  25006.95990712  .00000086  00000+0  17651-3 0  9991
2 54671  87.9307 348.8125 0001851  79.3316 280.8027 13.21823083102027
ONEWEB-0608             
1 54672U 22166AG  25006.89052645  .00000122  00000+0  26452-3 0  9999
2 54672  87.9292 348.8437 0002083  72.3411 287.7950 13.21826474102022
ONEWEB-0610             
1 54673U 22166AH  25006.94729601  .00000057  00000+0  10683-3 0  9995
2 54673  87.9306 348.8333 0002135  73.3481 286.7887 13.21828932101938
ONEWEB-0611             
1 54674U 22166AJ  25006.94100452  .00000068  00000+0  13419-3 0  9995
2 54674  87.9307 348.8324 0001630  93.6096 266.5224 13.21826513101929
ONEWEB-0612             
1 54675U 22166AK  25006.95361291  .00000050  00000+0  90025-4 0  9997
2 54675  87.9303 348.8096 0001881  77.4510 282.6834 13.21828009101918
ONEWEB-0615             
1 54676U 22166AL  25006.93469815  .00000055  00000+0  10100-3 0  9997
2 54676  87.9305 348.8391 0001741  76.7496 283.3832 13.21826450101924
ONEWEB-0655             
1 54677U 22166AM  25006.90789439  .00000072  00000+0  14198-3 0  9992
2 54677  87.9306 348.8477 0001617  74.2010 285.9302 13.21826852101913
ONEWEB-0659             
1 54678U 22166AN  25006.92522387  .00000045  00000+0  76716-4 0  9997
2 54678  87.9305 348.8479 0001901  88.7729 271.3622 13.21827523102009
